CCSDS_OMM_VERS = 2.0
CREATION_DATE  = 
ORIGINATOR     = 

OBJECT_NAME    = STARLINK-35875
OBJECT_ID      = 2025-299K
CENTER_NAME    = EARTH
REF_FRAME      = TEME
TIME_SYSTEM    = UTC
MEAN_ELEMENT_THEORY = SGP/SGP4

EPOCH          = 2026-01-07T17:07:06.340512
MEAN_MOTION    = 15.50642481
ECCENTRICITY   = .00016093
INCLINATION    = 42.9999
RA_OF_ASC_NODE = 160.0255
ARG_OF_PERICENTER = 259.7893
MEAN_ANOMALY   = 100.2785

EPHEMERIS_TYPE = 0
CLASSIFICATION_TYPE = U
NORAD_CAT_ID   = 67111
ELEMENT_SET_NO = 999
REV_AT_EPOCH   = 371
BSTAR          = .12416104E-2
MEAN_MOTION_DOT = .7335E-3
MEAN_MOTION_DDOT = 0

CCSDS_OMM_VERS = 2.0
CREATION_DATE  = 
ORIGINATOR     = 

OBJECT_NAME    = STARLINK-35906
OBJECT_ID      = 2025-299L
CENTER_NAME    = EARTH
REF_FRAME      = TEME
TIME_SYSTEM    = UTC
MEAN_ELEMENT_THEORY = SGP/SGP4

EPOCH          = 2026-01-07T17:06:09.700992
MEAN_MOTION    = 15.50421393
ECCENTRICITY   = .0006798
INCLINATION    = 43.0001
RA_OF_ASC_NODE = 160.0197
ARG_OF_PERICENTER = 307.6090
MEAN_ANOMALY   = 52.4153

EPHEMERIS_TYPE = 0
CLASSIFICATION_TYPE = U
NORAD_CAT_ID   = 67112
ELEMENT_SET_NO = 999
REV_AT_EPOCH   = 371
BSTAR          = .10193402E-2
MEAN_MOTION_DOT = .59625E-3
MEAN_MOTION_DDOT = 0

CCSDS_OMM_VERS = 2.0
CREATION_DATE  = 
ORIGINATOR     = 

OBJECT_NAME    = STARLINK-35789
OBJECT_ID      = 2025-299M
CENTER_NAME    = EARTH
REF_FRAME      = TEME
TIME_SYSTEM    = UTC
MEAN_ELEMENT_THEORY = SGP/SGP4

EPOCH          = 2026-01-07T22:00:01.999584
MEAN_MOTION    = 15.47249909
ECCENTRICITY   = .00019766
INCLINATION    = 42.9997
RA_OF_ASC_NODE = 158.8333
ARG_OF_PERICENTER = 274.6810
MEAN_ANOMALY   = 143.5642

EPHEMERIS_TYPE = 0
CLASSIFICATION_TYPE = U
NORAD_CAT_ID   = 67113
ELEMENT_SET_NO = 999
REV_AT_EPOCH   = 490
BSTAR          = -.44310401E-1
MEAN_MOTION_DOT = -.2056675E-1
MEAN_MOTION_DDOT = 0

CCSDS_OMM_VERS = 2.0
CREATION_DATE  = 
ORIGINATOR     = 

OBJECT_NAME    = STARLINK-36180
OBJECT_ID      = 2025-299N
CENTER_NAME    = EARTH
REF_FRAME      = TEME
TIME_SYSTEM    = UTC
MEAN_ELEMENT_THEORY = SGP/SGP4

EPOCH          = 2026-01-07T17:05:07.769472
MEAN_MOTION    = 15.50594229
ECCENTRICITY   = .00015088
INCLINATION    = 43.0000
RA_OF_ASC_NODE = 160.0132
ARG_OF_PERICENTER = 266.2314
MEAN_ANOMALY   = 93.8373

EPHEMERIS_TYPE = 0
CLASSIFICATION_TYPE = U
NORAD_CAT_ID   = 67114
ELEMENT_SET_NO = 999
REV_AT_EPOCH   = 371
BSTAR          = .16390387E-2
MEAN_MOTION_DOT = .97066E-3
MEAN_MOTION_DDOT = 0

CCSDS_OMM_VERS = 2.0
CREATION_DATE  = 
ORIGINATOR     = 

OBJECT_NAME    = STARLINK-35892
OBJECT_ID      = 2025-299P
CENTER_NAME    = EARTH
REF_FRAME      = TEME
TIME_SYSTEM    = UTC
MEAN_ELEMENT_THEORY = SGP/SGP4

EPOCH          = 2026-01-07T22:00:01.999584
MEAN_MOTION    = 15.40661886
ECCENTRICITY   = .00016121
INCLINATION    = 43.0002
RA_OF_ASC_NODE = 159.0032
ARG_OF_PERICENTER = 281.1206
MEAN_ANOMALY   = 67.1437

EPHEMERIS_TYPE = 0
CLASSIFICATION_TYPE = U
NORAD_CAT_ID   = 67115
ELEMENT_SET_NO = 999
REV_AT_EPOCH   = 490
BSTAR          = .17536131E-2
MEAN_MOTION_DOT = .73566E-3
MEAN_MOTION_DDOT = 0

CCSDS_OMM_VERS = 2.0
CREATION_DATE  = 
ORIGINATOR     = 

OBJECT_NAME    = STARLINK-35738
OBJECT_ID      = 2025-299Q
CENTER_NAME    = EARTH
REF_FRAME      = TEME
TIME_SYSTEM    = UTC
MEAN_ELEMENT_THEORY = SGP/SGP4

EPOCH          = 2026-01-07T22:00:01.999584
MEAN_MOTION    = 15.40651207
ECCENTRICITY   = .00015272
INCLINATION    = 43.0000
RA_OF_ASC_NODE = 158.9131
ARG_OF_PERICENTER = 273.7162
MEAN_ANOMALY   = 111.8798

EPHEMERIS_TYPE = 0
CLASSIFICATION_TYPE = U
NORAD_CAT_ID   = 67116
ELEMENT_SET_NO = 999
REV_AT_EPOCH   = 490
BSTAR          = .19271994E-2
MEAN_MOTION_DOT = .80927E-3
MEAN_MOTION_DDOT = 0

CCSDS_OMM_VERS = 2.0
CREATION_DATE  = 
ORIGINATOR     = 

OBJECT_NAME    = STARLINK-35674
OBJECT_ID      = 2025-299R
CENTER_NAME    = EARTH
REF_FRAME      = TEME
TIME_SYSTEM    = UTC
MEAN_ELEMENT_THEORY = SGP/SGP4

EPOCH          = 2026-01-07T22:00:01.999584
MEAN_MOTION    = 15.40660536
ECCENTRICITY   = .00021065
INCLINATION    = 43.0008
RA_OF_ASC_NODE = 159.1253
ARG_OF_PERICENTER = 279.4186
MEAN_ANOMALY   = 19.0896

EPHEMERIS_TYPE = 0
CLASSIFICATION_TYPE = U
NORAD_CAT_ID   = 67117
ELEMENT_SET_NO = 999
REV_AT_EPOCH   = 480
BSTAR          = .18377156E-2
MEAN_MOTION_DOT = .77143E-3
MEAN_MOTION_DDOT = 0

CCSDS_OMM_VERS = 2.0
CREATION_DATE  = 
ORIGINATOR     = 

OBJECT_NAME    = STARLINK-35701
OBJECT_ID      = 2025-299S
CENTER_NAME    = EARTH
REF_FRAME      = TEME
TIME_SYSTEM    = UTC
MEAN_ELEMENT_THEORY = SGP/SGP4

EPOCH          = 2026-01-07T17:03:09.300384
MEAN_MOTION    = 15.50625926
ECCENTRICITY   = .00019151
INCLINATION    = 42.9999
RA_OF_ASC_NODE = 160.0027
ARG_OF_PERICENTER = 266.1476
MEAN_ANOMALY   = 93.9165

EPHEMERIS_TYPE = 0
CLASSIFICATION_TYPE = U
NORAD_CAT_ID   = 67118
ELEMENT_SET_NO = 999
REV_AT_EPOCH   = 371
BSTAR          = .18418954E-2
MEAN_MOTION_DOT = .109421E-2
MEAN_MOTION_DDOT = 0

CCSDS_OMM_VERS = 2.0
CREATION_DATE  = 
ORIGINATOR     = 

OBJECT_NAME    = STARLINK-36179
OBJECT_ID      = 2025-299T
CENTER_NAME    = EARTH
REF_FRAME      = TEME
TIME_SYSTEM    = UTC
MEAN_ELEMENT_THEORY = SGP/SGP4

EPOCH          = 2026-01-07T22:00:01.999584
MEAN_MOTION    = 15.40660237
ECCENTRICITY   = .00017695
INCLINATION    = 43.0007
RA_OF_ASC_NODE = 159.0934
ARG_OF_PERICENTER = 279.2370
MEAN_ANOMALY   = 31.7091

EPHEMERIS_TYPE = 0
CLASSIFICATION_TYPE = U
NORAD_CAT_ID   = 67119
ELEMENT_SET_NO = 999
REV_AT_EPOCH   = 501
BSTAR          = .17492389E-2
MEAN_MOTION_DOT = .73376E-3
MEAN_MOTION_DDOT = 0

CCSDS_OMM_VERS = 2.0
CREATION_DATE  = 
ORIGINATOR     = 

OBJECT_NAME    = STARLINK-36217
OBJECT_ID      = 2025-299U
CENTER_NAME    = EARTH
REF_FRAME      = TEME
TIME_SYSTEM    = UTC
MEAN_ELEMENT_THEORY = SGP/SGP4

EPOCH          = 2026-01-07T17:02:39.627168
MEAN_MOTION    = 15.50590310
ECCENTRICITY   = .00013407
INCLINATION    = 42.9999
RA_OF_ASC_NODE = 159.9991
ARG_OF_PERICENTER = 259.8711
MEAN_ANOMALY   = 100.1998

EPHEMERIS_TYPE = 0
CLASSIFICATION_TYPE = U
NORAD_CAT_ID   = 67120
ELEMENT_SET_NO = 999
REV_AT_EPOCH   = 371
BSTAR          = .1676622E-2
MEAN_MOTION_DOT = .99314E-3
MEAN_MOTION_DDOT = 0

CCSDS_OMM_VERS = 2.0
CREATION_DATE  = 
ORIGINATOR     = 

OBJECT_NAME    = STARLINK-36124
OBJECT_ID      = 2025-299V
CENTER_NAME    = EARTH
REF_FRAME      = TEME
TIME_SYSTEM    = UTC
MEAN_ELEMENT_THEORY = SGP/SGP4

EPOCH          = 2026-01-07T03:06:24.252768
MEAN_MOTION    = 15.50538893
ECCENTRICITY   = .00025455
INCLINATION    = 42.9991
RA_OF_ASC_NODE = 163.3817
ARG_OF_PERICENTER = 10.5156
MEAN_ANOMALY   = 349.5757

EPHEMERIS_TYPE = 0
CLASSIFICATION_TYPE = U
NORAD_CAT_ID   = 67121
ELEMENT_SET_NO = 999
REV_AT_EPOCH   = 362
BSTAR          = .19921456E-2
MEAN_MOTION_DOT = .118144E-2
MEAN_MOTION_DDOT = 0

CCSDS_OMM_VERS = 2.0
CREATION_DATE  = 
ORIGINATOR     = 

OBJECT_NAME    = STARLINK-36188
OBJECT_ID      = 2025-299W
CENTER_NAME    = EARTH
REF_FRAME      = TEME
TIME_SYSTEM    = UTC
MEAN_ELEMENT_THEORY = SGP/SGP4

EPOCH          = 2026-01-07T22:00:01.999584
MEAN_MOTION    = 15.43440160
ECCENTRICITY   = .00014087
INCLINATION    = 43.0003
RA_OF_ASC_NODE = 158.8293
ARG_OF_PERICENTER = 303.4117
MEAN_ANOMALY   = 116.8629

EPHEMERIS_TYPE = 0
CLASSIFICATION_TYPE = U
NORAD_CAT_ID   = 67122
ELEMENT_SET_NO = 999
REV_AT_EPOCH   = 501
BSTAR          = -.56862308E-1
MEAN_MOTION_DOT = -.2324168E-1
MEAN_MOTION_DDOT = 0

