STARLINK-35875          
1 67111U 25299K   26007.71326783  .00073350  00000+0  12416-2 0  9998
2 67111  42.9999 160.0255 0001609 259.7893 100.2785 15.50642481  3718
STARLINK-35906          
1 67112U 25299L   26007.71261228  .00059625  00000+0  10193-2 0  9990
2 67112  43.0001 160.0197 0006798 307.6090  52.4153 15.50421393  3710
STARLINK-35789          
1 67113U 25299M   26007.91668981 -.02056675  00000+0 -44310-1 0  9993
2 67113  42.9997 158.8333 0001976 274.6810 143.5642 15.47249909  4900
STARLINK-36180          
1 67114U 25299N   26007.71189548  .00097066  00000+0  16390-2 0  9992
2 67114  43.0000 160.0132 0001508 266.2314  93.8373 15.50594229  3715
STARLINK-35892          
1 67115U 25299P   26007.91668981  .00073566  00000+0  17536-2 0  9990
2 67115  43.0002 159.0032 0001612 281.1206  67.1437 15.40661886  4907
STARLINK-35738          
1 67116U 25299Q   26007.91668981  .00080927  00000+0  19272-2 0  9999
2 67116  43.0000 158.9131 0001527 273.7162 111.8798 15.40651207  4900
STARLINK-35674          
1 67117U 25299R   26007.91668981  .00077143  00000+0  18377-2 0  9991
2 67117  43.0008 159.1253 0002106 279.4186  19.0896 15.40660536  4802
STARLINK-35701          
1 67118U 25299S   26007.71052431  .00109421  00000+0  18419-2 0  9999
2 67118  42.9999 160.0027 0001915 266.1476  93.9165 15.50625926  3716
STARLINK-36179          
1 67119U 25299T   26007.91668981  .00073376  00000+0  17492-2 0  9994
2 67119  43.0007 159.0934 0001769 279.2370  31.7091 15.40660237  5015
STARLINK-36217          
1 67120U 25299U   26007.71018087  .00099314  00000+0  16766-2 0  9993
2 67120  42.9999 159.9991 0001340 259.8711 100.1998 15.50590310  3712
STARLINK-36124          
1 67121U 25299V   26007.12944737  .00118144  00000+0  19921-2 0  9998
2 67121  42.9991 163.3817 0002545  10.5156 349.5757 15.50538893  3624
STARLINK-36188          
1 67122U 25299W   26007.91668981 -.02324168  00000+0 -56862-1 0  9993
2 67122  43.0003 158.8293 0001408 303.4117 116.8629 15.43440160  5015
